{"type": "FeatureCollection", "features": [ {"type": "Feature", "properties": {"norad_id": 66508, "name": "STARLINK-35608", "group": "last-30-days", "lat": 42.70122791153629, "lon": -98.14857892267077, "alt_km": 348.88581360862463, "timestamp": "2025-12-03T10:52:56.222260+00:00", "meta": {"OBJECT_NAME": "STARLINK-35608", "OBJECT_ID": "2025-263Z", "EPOCH": "2025-12-03T04:00:01.998720", "MEAN_MOTION": 15.72801758, "ECCENTRICITY": 0.0001569, "INCLINATION": 42.9989, "RA_OF_ASC_NODE": 181.5482, "ARG_OF_PERICENTER": 269.3027, "MEAN_ANOMALY": 349.9824, "EPHEMERIS_TYPE": 0, "CLASSIFICATION_TYPE": "U", "NORAD_CAT_ID": 66508, "ELEMENT_SET_NO": 999, "REV_AT_EPOCH": 409, "BSTAR": -0.016016, "MEAN_MOTION_DOT": -0.01975002, "MEAN_MOTION_DDOT": 0}, "tle": {"line1": "1 66508U 25263Z   25337.16668980 -.01975002  00000+0 -16016-1 0  9997", "line2": "2 66508  42.9989 181.5482 0001569 269.3027 349.9824 15.72801758  4093"}}, "geometry": {"type": "Point", "coordinates": [-98.14857892267077, 42.70122791153629]}}, {"type": "Feature", "properties": {"norad_id": 66509, "name": "STARLINK-35598", "group": "last-30-days", "lat": 42.950825119141356, "lon": -87.70318974823722, "alt_km": 348.87912559235883, "timestamp": "2025-12-03T10:52:56.222270+00:00", "meta": {"OBJECT_NAME": "STARLINK-35598", "OBJECT_ID": "2025-263AA", "EPOCH": "2025-12-03T04:00:01.998720", "MEAN_MOTION": 15.72792583, "ECCENTRICITY": 0.0001592, "INCLINATION": 42.9989, "RA_OF_ASC_NODE": 181.5271, "ARG_OF_PERICENTER": 268.7173, "MEAN_ANOMALY": 358.2406, "EPHEMERIS_TYPE": 0, "CLASSIFICATION_TYPE": "U", "NORAD_CAT_ID": 66509, "ELEMENT_SET_NO": 999, "REV_AT_EPOCH": 409, "BSTAR": -0.015907, "MEAN_MOTION_DOT": -0.0196244, "MEAN_MOTION_DDOT": 0}, "tle": {"line1": "1 66509U 25263AA  25337.16668980 -.01962440  00000+0 -15907-1 0  9998", "line2": "2 66509  42.9989 181.5271 0001592 268.7173 358.2406 15.72792583  4095"}}, "geometry": {"type": "Point", "coordinates": [-87.70318974823722, 42.950825119141356]}}, {"type": "Feature", "properties": {"norad_id": 66510, "name": "STARLINK-35600", "group": "last-30-days", "lat": 42.85292464394052, "lon": -95.54735785920698, "alt_km": 348.93473344757695, "timestamp": "2025-12-03T10:52:56.222283+00:00", "meta": {"OBJECT_NAME": "STARLINK-35600", "OBJECT_ID": "2025-263AB", "EPOCH": "2025-12-03T04:00:01.998720", "MEAN_MOTION": 15.7280377, "ECCENTRICITY": 0.0001637, "INCLINATION": 42.9988, "RA_OF_ASC_NODE": 181.5422, "ARG_OF_PERICENTER": 261.3291, "MEAN_ANOMALY": 359.8775, "EPHEMERIS_TYPE": 0, "CLASSIFICATION_TYPE": "U", "NORAD_CAT_ID": 66510, "ELEMENT_SET_NO": 999, "REV_AT_EPOCH": 409, "BSTAR": -0.016077, "MEAN_MOTION_DOT": -0.0198187, "MEAN_MOTION_DDOT": 0}, "tle": {"line1": "1 66510U 25263AB  25337.16668980 -.01981870  00000+0 -16077-1 0  9997", "line2": "2 66510  42.9988 181.5422 0001637 261.3291 359.8775 15.72803770  4091"}}, "geometry": {"type": "Point", "coordinates": [-95.54735785920698, 42.85292464394052]}}, {"type": "Feature", "properties": {"norad_id": 66511, "name": "STARLINK-35444", "group": "last-30-days", "lat": 42.9779236137079, "lon": -90.32047488973419, "alt_km": 348.8346407619756, "timestamp": "2025-12-03T10:52:56.222294+00:00", "meta": {"OBJECT_NAME": "STARLINK-35444", "OBJECT_ID": "2025-263AC", "EPOCH": "2025-12-03T04:00:01.998720", "MEAN_MOTION": 15.72797695, "ECCENTRICITY": 0.0001531, "INCLINATION": 42.9988, "RA_OF_ASC_NODE": 181.5329, "ARG_OF_PERICENTER": 264.0508, "MEAN_ANOMALY": 0.989, "EPHEMERIS_TYPE": 0, "CLASSIFICATION_TYPE": "U", "NORAD_CAT_ID": 66511, "ELEMENT_SET_NO": 999, "REV_AT_EPOCH": 409, "BSTAR": -0.015978, "MEAN_MOTION_DOT": -0.01970551, "MEAN_MOTION_DDOT": 0}, "tle": {"line1": "1 66511U 25263AC  25337.16668980 -.01970551  00000+0 -15978-1 0  9991", "line2": "2 66511  42.9988 181.5329 0001531 264.0508   0.9890 15.72797695  4092"}}, "geometry": {"type": "Point", "coordinates": [-90.32047488973419, 42.9779236137079]}}, {"type": "Feature", "properties": {"norad_id": 66512, "name": "STARLINK-35366", "group": "last-30-days", "lat": 42.86420482450562, "lon": -85.09527366535065, "alt_km": 348.89922841415046, "timestamp": "2025-12-03T10:52:56.222306+00:00", "meta": {"OBJECT_NAME": "STARLINK-35366", "OBJECT_ID": "2025-263AD", "EPOCH": "2025-12-03T04:00:01.998720", "MEAN_MOTION": 15.72802222, "ECCENTRICITY": 0.0001632, "INCLINATION": 42.999, "RA_OF_ASC_NODE": 181.523, "ARG_OF_PERICENTER": 262.1758, "MEAN_ANOMALY": 6.6919, "EPHEMERIS_TYPE": 0, "CLASSIFICATION_TYPE": "U", "NORAD_CAT_ID": 66512, "ELEMENT_SET_NO": 999, "REV_AT_EPOCH": 409, "BSTAR": -0.015995, "MEAN_MOTION_DOT": -0.01972804, "MEAN_MOTION_DDOT": 0}, "tle": {"line1": "1 66512U 25263AD  25337.16668980 -.01972804  00000+0 -15995-1 0  9994", "line2": "2 66512  42.9990 181.5230 0001632 262.1758   6.6919 15.72802222  4093"}}, "geometry": {"type": "Point", "coordinates": [-85.09527366535065, 42.86420482450562]}}, {"type": "Feature", "properties": {"norad_id": 66513, "name": "STARLINK-35692", "group": "last-30-days", "lat": 42.94531672333418, "lon": -92.93472831592635, "alt_km": 348.9361932591437, "timestamp": "2025-12-03T10:52:56.222317+00:00", "meta": {"OBJECT_NAME": "STARLINK-35692", "OBJECT_ID": "2025-263AE", "EPOCH": "2025-12-03T04:00:01.998720", "MEAN_MOTION": 15.72798122, "ECCENTRICITY": 0.0001685, "INCLINATION": 42.9988, "RA_OF_ASC_NODE": 181.5372, "ARG_OF_PERICENTER": 271.1338, "MEAN_ANOMALY": 351.9881, "EPHEMERIS_TYPE": 0, "CLASSIFICATION_TYPE": "U", "NORAD_CAT_ID": 66513, "ELEMENT_SET_NO": 999, "REV_AT_EPOCH": 409, "BSTAR": -0.01598, "MEAN_MOTION_DOT": -0.01970933, "MEAN_MOTION_DDOT": 0}, "tle": {"line1": "1 66513U 25263AE  25337.16668980 -.01970933  00000+0 -15980-1 0  9990", "line2": "2 66513  42.9988 181.5372 0001685 271.1338 351.9881 15.72798122  4097"}}, "geometry": {"type": "Point", "coordinates": [-92.93472831592635, 42.94531672333418]}}, {"type": "Feature", "properties": {"norad_id": 66514, "name": "SENTINEL-6B", "group": "last-30-days", "lat": 27.62250373777583, "lon": -164.72943455470224, "alt_km": 1320.466353703131, "timestamp": "2025-12-03T10:52:56.222329+00:00", "meta": {"OBJECT_NAME": "SENTINEL-6B", "OBJECT_ID": "2025-264A", "EPOCH": "2025-12-03T01:23:27.973824", "MEAN_MOTION": 12.85877453, "ECCENTRICITY": 0.0011537, "INCLINATION": 66.0389, "RA_OF_ASC_NODE": 182.6439, "ARG_OF_PERICENTER": 268.7049, "MEAN_ANOMALY": 91.2647, "EPHEMERIS_TYPE": 0, "CLASSIFICATION_TYPE": "U", "NORAD_CAT_ID": 66514, "ELEMENT_SET_NO": 999, "REV_AT_EPOCH": 204, "BSTAR": 0.00030684, "MEAN_MOTION_DOT": 1.4e-07, "MEAN_MOTION_DDOT": 0}, "tle": {"line1": "1 66514U 25264A   25337.05796266  .00000014  00000+0  30684-3 0  9990", "line2": "2 66514  66.0389 182.6439 0011537 268.7049  91.2647 12.85877453  2047"}}, "geometry": {"type": "Point", "coordinates": [-164.72943455470224, 27.62250373777583]}}, {"type": "Feature", "properties": {"norad_id": 66516, "name": "STARLINK-35924", "group": "last-30-days", "lat": 37.80695339766879, "lon": -127.2535622103617, "alt_km": 339.45888336127337, "timestamp": "2025-12-03T10:52:56.222340+00:00", "meta": {"OBJECT_NAME": "STARLINK-35924", "OBJECT_ID": "2025-265A", "EPOCH": "2025-12-03T04:00:01.998720", "MEAN_MOTION": 15.75076169, "ECCENTRICITY": 0.0001725, "INCLINATION": 42.9999, "RA_OF_ASC_NODE": 110.8568, "ARG_OF_PERICENTER": 265.7578, "MEAN_ANOMALY": 22.2989, "EPHEMERIS_TYPE": 0, "CLASSIFICATION_TYPE": "U", "NORAD_CAT_ID": 66516, "ELEMENT_SET_NO": 999, "REV_AT_EPOCH": 343, "BSTAR": -0.00024288, "MEAN_MOTION_DOT": -0.00037681, "MEAN_MOTION_DDOT": 0}, "tle": {"line1": "1 66516U 25265A   25337.16668980 -.00037681  00000+0 -24288-3 0  9991", "line2": "2 66516  42.9999 110.8568 0001725 265.7578  22.2989 15.75076169  3431"}}, "geometry": {"type": "Point", "coordinates": [-127.2535622103617, 37.80695339766879]}}, {"type": "Feature", "properties": {"norad_id": 66517, "name": "STARLINK-35937", "group": "last-30-days", "lat": 37.05806448198754, "lon": -125.02188284596991, "alt_km": 339.46780082113946, "timestamp": "2025-12-03T10:52:56.222351+00:00", "meta": {"OBJECT_NAME": "STARLINK-35937", "OBJECT_ID": "2025-265B", "EPOCH": "2025-12-03T04:00:01.998720", "MEAN_MOTION": 15.75069143, "ECCENTRICITY": 0.0001597, "INCLINATION": 42.9997, "RA_OF_ASC_NODE": 110.8526, "ARG_OF_PERICENTER": 266.3268, "MEAN_ANOMALY": 23.654, "EPHEMERIS_TYPE": 0, "CLASSIFICATION_TYPE": "U", "NORAD_CAT_ID": 66517, "ELEMENT_SET_NO": 999, "REV_AT_EPOCH": 345, "BSTAR": -8.4109e-05, "MEAN_MOTION_DOT": -0.00013394, "MEAN_MOTION_DDOT": 0}, "tle": {"line1": "1 66517U 25265B   25337.16668980 -.00013394  00000+0 -84109-4 0  9996", "line2": "2 66517  42.9997 110.8526 0001597 266.3268  23.6540 15.75069143  3458"}}, "geometry": {"type": "Point", "coordinates": [-125.02188284596991, 37.05806448198754]}}, {"type": "Feature", "properties": {"norad_id": 66518, "name": "STARLINK-35962", "group": "last-30-days", "lat": 36.27445761110285, "lon": -122.85276017521166, "alt_km": 339.6246926613021, "timestamp": "2025-12-03T10:52:56.222363+00:00", "meta": {"OBJECT_NAME": "STARLINK-35962", "OBJECT_ID": "2025-265C", "EPOCH": "2025-12-03T04:00:01.998720", "MEAN_MOTION": 15.75049112, "ECCENTRICITY": 0.0001885, "INCLINATION": 42.9996, "RA_OF_ASC_NODE": 110.8476, "ARG_OF_PERICENTER": 259.8663, "MEAN_ANOMALY": 32.0331, "EPHEMERIS_TYPE": 0, "CLASSIFICATION_TYPE": "U", "NORAD_CAT_ID": 66518, "ELEMENT_SET_NO": 999, "REV_AT_EPOCH": 345, "BSTAR": 0.00026245, "MEAN_MOTION_DOT": 0.00040047, "MEAN_MOTION_DDOT": 0}, "tle": {"line1": "1 66518U 25265C   25337.16668980  .00040047  00000+0  26245-3 0  9996", "line2": "2 66518  42.9996 110.8476 0001885 259.8663  32.0331 15.75049112  3454"}}, "geometry": {"type": "Point", "coordinates": [-122.85276017521166, 36.27445761110285]}}]}